{"type": "FeatureCollection", "features": [ {"type": "Feature", "properties": {"norad_id": 31630, "name": "FENGYUN 1C DEB", "group": "fengyun-1c-debris", "lat": -7.267559138302269, "lon": 169.1815472254652, "alt_km": 463.5082417714357, "timestamp": "2025-12-25T22:42:17.294882+00:00", "meta": {"OBJECT_NAME": "FENGYUN 1C DEB", "OBJECT_ID": "1999-025CAL", "EPOCH": "2025-12-22T05:28:34.626720", "MEAN_MOTION": 15.06551514, "ECCENTRICITY": 0.01641353, "INCLINATION": 98.0893, "RA_OF_ASC_NODE": 164.2373, "ARG_OF_PERICENTER": 324.5448, "MEAN_ANOMALY": 34.4953, "EPHEMERIS_TYPE": 0, "CLASSIFICATION_TYPE": "U", "NORAD_CAT_ID": 31630, "ELEMENT_SET_NO": 999, "REV_AT_EPOCH": 98733, "BSTAR": 0.0009387373, "MEAN_MOTION_DOT": 0.00018857, "MEAN_MOTION_DDOT": 0}, "tle": {"line1": "1 31630U 99025CAL 25356.22817855  .00018857  00000+0  93874-3 0  9999", "line2": "2 31630  98.0893 164.2373 0164135 324.5448  34.4953 15.06551514987339"}}, "geometry": {"type": "Point", "coordinates": [169.1815472254652, -7.267559138302269]}}, {"type": "Feature", "properties": {"norad_id": 31631, "name": "FENGYUN 1C DEB", "group": "fengyun-1c-debris", "lat": 15.995197052377994, "lon": 95.41765467104267, "alt_km": 678.7566616558979, "timestamp": "2025-12-25T22:42:17.294892+00:00", "meta": {"OBJECT_NAME": "FENGYUN 1C DEB", "OBJECT_ID": "1999-025CAM", "EPOCH": "2025-12-21T23:22:10.430976", "MEAN_MOTION": 14.72256509, "ECCENTRICITY": 0.00588579, "INCLINATION": 99.3447, "RA_OF_ASC_NODE": 268.1503, "ARG_OF_PERICENTER": 304.5892, "MEAN_ANOMALY": 54.9766, "EPHEMERIS_TYPE": 0, "CLASSIFICATION_TYPE": "U", "NORAD_CAT_ID": 31631, "ELEMENT_SET_NO": 999, "REV_AT_EPOCH": 64108, "BSTAR": 0.0085242028, "MEAN_MOTION_DOT": 0.00055675, "MEAN_MOTION_DDOT": 0}, "tle": {"line1": "1 31631U 99025CAM 25355.97373184  .00055675  00000+0  85242-2 0  9991", "line2": "2 31631  99.3447 268.1503 0058857 304.5892  54.9766 14.72256509641088"}}, "geometry": {"type": "Point", "coordinates": [95.41765467104267, 15.995197052377994]}}, {"type": "Feature", "properties": {"norad_id": 31634, "name": "FENGYUN 1C DEB", "group": "fengyun-1c-debris", "lat": -21.36030181302676, "lon": -137.0708717629651, "alt_km": 904.4860447080409, "timestamp": "2025-12-25T22:42:17.294904+00:00", "meta": {"OBJECT_NAME": "FENGYUN 1C DEB", "OBJECT_ID": "1999-025CAQ", "EPOCH": "2025-12-17T20:54:46.786176", "MEAN_MOTION": 13.94677319, "ECCENTRICITY": 0.00920361, "INCLINATION": 99.3665, "RA_OF_ASC_NODE": 38.4397, "ARG_OF_PERICENTER": 144.0195, "MEAN_ANOMALY": 216.7209, "EPHEMERIS_TYPE": 0, "CLASSIFICATION_TYPE": "U", "NORAD_CAT_ID": 31634, "ELEMENT_SET_NO": 999, "REV_AT_EPOCH": 56595, "BSTAR": 0.00024519173, "MEAN_MOTION_DOT": 2.94e-06, "MEAN_MOTION_DDOT": 0}, "tle": {"line1": "1 31634U 99025CAQ 25351.87137484  .00000294  00000+0  24519-3 0  9998", "line2": "2 31634  99.3665  38.4397 0092036 144.0195 216.7209 13.94677319565952"}}, "geometry": {"type": "Point", "coordinates": [-137.0708717629651, -21.36030181302676]}}, {"type": "Feature", "properties": {"norad_id": 31639, "name": "FENGYUN 1C DEB", "group": "fengyun-1c-debris", "lat": -19.702964729172095, "lon": -51.84268703744067, "alt_km": 1024.6053130604869, "timestamp": "2025-12-25T22:42:17.294917+00:00", "meta": {"OBJECT_NAME": "FENGYUN 1C DEB", "OBJECT_ID": "1999-025CAV", "EPOCH": "2025-12-22T15:39:08.252640", "MEAN_MOTION": 13.85166588, "ECCENTRICITY": 0.01620254, "INCLINATION": 98.7446, "RA_OF_ASC_NODE": 301.925, "ARG_OF_PERICENTER": 118.3699, "MEAN_ANOMALY": 7.054, "EPHEMERIS_TYPE": 0, "CLASSIFICATION_TYPE": "U", "NORAD_CAT_ID": 31639, "ELEMENT_SET_NO": 999, "REV_AT_EPOCH": 93825, "BSTAR": 0.0001297758, "MEAN_MOTION_DOT": 1.24e-06, "MEAN_MOTION_DDOT": 0}, "tle": {"line1": "1 31639U 99025CAV 25356.65217885  .00000124  00000+0  12978-3 0  9996", "line2": "2 31639  98.7446 301.9250 0162025 118.3699   7.0540 13.85166588938259"}}, "geometry": {"type": "Point", "coordinates": [-51.84268703744067, -19.702964729172095]}}, {"type": "Feature", "properties": {"norad_id": 31642, "name": "FENGYUN 1C DEB", "group": "fengyun-1c-debris", "lat": -63.471607763927544, "lon": 99.35527602008078, "alt_km": 768.9543768323574, "timestamp": "2025-12-25T22:42:17.294927+00:00", "meta": {"OBJECT_NAME": "FENGYUN 1C DEB", "OBJECT_ID": "1999-025CAY", "EPOCH": "2025-12-25T11:16:54.891264", "MEAN_MOTION": 14.33429312, "ECCENTRICITY": 0.0119589, "INCLINATION": 98.5031, "RA_OF_ASC_NODE": 81.449, "ARG_OF_PERICENTER": 218.5008, "MEAN_ANOMALY": 140.7601, "EPHEMERIS_TYPE": 0, "CLASSIFICATION_TYPE": "U", "NORAD_CAT_ID": 31642, "ELEMENT_SET_NO": 999, "REV_AT_EPOCH": 97201, "BSTAR": 0.00039099, "MEAN_MOTION_DOT": 1.123e-05, "MEAN_MOTION_DDOT": 0}, "tle": {"line1": "1 31642U 99025CAY 25359.47007976  .00001123  00000+0  39099-3 0  9994", "line2": "2 31642  98.5031  81.4490 0119589 218.5008 140.7601 14.33429312972017"}}, "geometry": {"type": "Point", "coordinates": [99.35527602008078, -63.471607763927544]}}, {"type": "Feature", "properties": {"norad_id": 31644, "name": "FENGYUN 1C DEB", "group": "fengyun-1c-debris", "lat": 71.63682913370609, "lon": -136.791754374406, "alt_km": 618.3815329177687, "timestamp": "2025-12-25T22:42:17.294937+00:00", "meta": {"OBJECT_NAME": "FENGYUN 1C DEB", "OBJECT_ID": "1999-025CBA", "EPOCH": "2025-12-24T11:09:42.035040", "MEAN_MOTION": 14.6801574, "ECCENTRICITY": 0.01546634, "INCLINATION": 98.6703, "RA_OF_ASC_NODE": 249.0073, "ARG_OF_PERICENTER": 146.5214, "MEAN_ANOMALY": 26.7938, "EPHEMERIS_TYPE": 0, "CLASSIFICATION_TYPE": "U", "NORAD_CAT_ID": 31644, "ELEMENT_SET_NO": 999, "REV_AT_EPOCH": 71216, "BSTAR": 0.00077873285, "MEAN_MOTION_DOT": 5.292e-05, "MEAN_MOTION_DDOT": 0}, "tle": {"line1": "1 31644U 99025CBA 25358.46506985  .00005292  00000+0  77873-3 0  9991", "line2": "2 31644  98.6703 249.0073 0154663 146.5214  26.7938 14.68015740712164"}}, "geometry": {"type": "Point", "coordinates": [-136.791754374406, 71.63682913370609]}}, {"type": "Feature", "properties": {"norad_id": 31646, "name": "FENGYUN 1C DEB", "group": "fengyun-1c-debris", "lat": -34.117175615062344, "lon": -163.35469710381437, "alt_km": 832.2857244284141, "timestamp": "2025-12-25T22:42:17.294948+00:00", "meta": {"OBJECT_NAME": "FENGYUN 1C DEB", "OBJECT_ID": "1999-025CBC", "EPOCH": "2025-12-21T19:12:21.278592", "MEAN_MOTION": 14.1415009, "ECCENTRICITY": 0.00334947, "INCLINATION": 98.6891, "RA_OF_ASC_NODE": 18.5609, "ARG_OF_PERICENTER": 188.0881, "MEAN_ANOMALY": 171.9757, "EPHEMERIS_TYPE": 0, "CLASSIFICATION_TYPE": "U", "NORAD_CAT_ID": 31646, "ELEMENT_SET_NO": 999, "REV_AT_EPOCH": 63319, "BSTAR": 0.00038755051, "MEAN_MOTION_DOT": 6.99e-06, "MEAN_MOTION_DDOT": 0}, "tle": {"line1": "1 31646U 99025CBC 25355.80024628  .00000699  00000+0  38755-3 0  9999", "line2": "2 31646  98.6891  18.5609 0033494 188.0881 171.9757 14.14150090633193"}}, "geometry": {"type": "Point", "coordinates": [-163.35469710381437, -34.117175615062344]}}, {"type": "Feature", "properties": {"norad_id": 31655, "name": "FENGYUN 1C DEB", "group": "fengyun-1c-debris", "lat": 14.36105865031845, "lon": 127.6588974279815, "alt_km": 915.9302040663888, "timestamp": "2025-12-25T22:42:17.294958+00:00", "meta": {"OBJECT_NAME": "FENGYUN 1C DEB", "OBJECT_ID": "1999-025CBM", "EPOCH": "2025-12-21T19:28:59.991744", "MEAN_MOTION": 13.63924147, "ECCENTRICITY": 0.02903525, "INCLINATION": 99.2852, "RA_OF_ASC_NODE": 301.3055, "ARG_OF_PERICENTER": 114.1713, "MEAN_ANOMALY": 279.1459, "EPHEMERIS_TYPE": 0, "CLASSIFICATION_TYPE": "U", "NORAD_CAT_ID": 31655, "ELEMENT_SET_NO": 999, "REV_AT_EPOCH": 59843, "BSTAR": 0.0030683353, "MEAN_MOTION_DOT": 3.207e-05, "MEAN_MOTION_DDOT": 0}, "tle": {"line1": "1 31655U 99025CBM 25355.81180546  .00003207  00000+0  30683-2 0  9991", "line2": "2 31655  99.2852 301.3055 0290352 114.1713 279.1459 13.63924147598439"}}, "geometry": {"type": "Point", "coordinates": [127.6588974279815, 14.36105865031845]}}, {"type": "Feature", "properties": {"norad_id": 31656, "name": "FENGYUN 1C DEB", "group": "fengyun-1c-debris", "lat": -77.54467435775872, "lon": 37.019459875321054, "alt_km": 743.9061907451596, "timestamp": "2025-12-25T22:42:17.294968+00:00", "meta": {"OBJECT_NAME": "FENGYUN 1C DEB", "OBJECT_ID": "1999-025CBN", "EPOCH": "2025-12-24T11:16:17.707296", "MEAN_MOTION": 14.47184667, "ECCENTRICITY": 0.00227366, "INCLINATION": 99.1944, "RA_OF_ASC_NODE": 348.2529, "ARG_OF_PERICENTER": 19.4599, "MEAN_ANOMALY": 131.8042, "EPHEMERIS_TYPE": 0, "CLASSIFICATION_TYPE": "U", "NORAD_CAT_ID": 31656, "ELEMENT_SET_NO": 999, "REV_AT_EPOCH": 96625, "BSTAR": 0.00224686, "MEAN_MOTION_DOT": 8.188e-05, "MEAN_MOTION_DDOT": 0}, "tle": {"line1": "1 31656U 99025CBN 25358.46964939  .00008188  00000+0  22469-2 0  9998", "line2": "2 31656  99.1944 348.2529 0022736  19.4599 131.8042 14.47184667966254"}}, "geometry": {"type": "Point", "coordinates": [37.019459875321054, -77.54467435775872]}}, {"type": "Feature", "properties": {"norad_id": 31657, "name": "FENGYUN 1C DEB", "group": "fengyun-1c-debris", "lat": -75.82789594308842, "lon": -32.282876735015655, "alt_km": 936.4921601483129, "timestamp": "2025-12-25T22:42:17.294978+00:00", "meta": {"OBJECT_NAME": "FENGYUN 1C DEB", "OBJECT_ID": "1999-025CBP", "EPOCH": "2025-12-15T00:08:35.623968", "MEAN_MOTION": 13.97064465, "ECCENTRICITY": 0.01478678, "INCLINATION": 102.2166, "RA_OF_ASC_NODE": 254.1396, "ARG_OF_PERICENTER": 48.4638, "MEAN_ANOMALY": 312.9088, "EPHEMERIS_TYPE": 0, "CLASSIFICATION_TYPE": "U", "NORAD_CAT_ID": 31657, "ELEMENT_SET_NO": 999, "REV_AT_EPOCH": 62896, "BSTAR": 0.0027457393, "MEAN_MOTION_DOT": 4.139e-05, "MEAN_MOTION_DDOT": 0}, "tle": {"line1": "1 31657U 99025CBP 25349.00596787  .00004139  00000+0  27457-2 0  9995", "line2": "2 31657 102.2166 254.1396 0147867  48.4638 312.9088 13.97064465628965"}}, "geometry": {"type": "Point", "coordinates": [-32.282876735015655, -75.82789594308842]}}]}